IRIDIUM 63              
1 25286U 98021B   25344.32879887  .00000572  00000+0  18755-3 0  9995
2 25286  86.3985   8.2263 0002408  89.7500 270.3974 14.36732729449135
IRIDIUM 69              
1 25319U 98026A   25344.14601647  .00000790  00000+0  23879-3 0  9999
2 25319  86.3980  21.0353 0003766 129.7041 230.4491 14.41213639448403
IRIDIUM 71              
1 25320U 98026B   25344.13297108  .00000422  00000+0  12443-3 0  9990
2 25320  86.3980  15.7138 0001660 156.9941 203.1334 14.41315553448937
IRIDIUM 73              
1 25344U 98032C   25343.47091419  .00001251  00000+0  30482-3 0  9990
2 25344  86.4403 332.3786 0002880  96.3459 263.8074 14.51983669455995
IRIDIUM 82              
1 25467U 98051A   25344.12429383  .00053962  00000+0  10120-2 0  9997
2 25467  86.3608  22.4250 0061337 345.5991  14.3515 15.46326647450998
