<?xml version="1.0" encoding="UTF-8"?>
<ndm xmlns:xsi="http://www.w3.org/2001/XMLSchema-instance" xsi:noNamespaceSchemaLocation="https://sanaregistry.org/r/ndmxml_unqualified/ndmxml-2.0.0-master-2.0.xsd">
<omm id="CCSDS_OMM_VERS" version="2.0">
<header><CREATION_DATE/><ORIGINATOR/></header><body><segment><metadata><OBJECT_NAME>IRIDIUM 63</OBJECT_NAME><OBJECT_ID>1998-021B</OBJECT_ID><CENTER_NAME>EARTH</CENTER_NAME><REF_FRAME>TEME</REF_FRAME><TIME_SYSTEM>UTC</TIME_SYSTEM><MEAN_ELEMENT_THEORY>SGP4</MEAN_ELEMENT_THEORY></metadata><data><meanElements><EPOCH>2025-12-10T07:53:28.222368</EPOCH><MEAN_MOTION>14.36732729</MEAN_MOTION><ECCENTRICITY>.00024088</ECCENTRICITY><INCLINATION>86.3985</INCLINATION><RA_OF_ASC_NODE>8.2263</RA_OF_ASC_NODE><ARG_OF_PERICENTER>89.7500</ARG_OF_PERICENTER><MEAN_ANOMALY>270.3974</MEAN_ANOMALY></meanElements><tleParameters><EPHEMERIS_TYPE>0</EPHEMERIS_TYPE><CLASSIFICATION_TYPE>U</CLASSIFICATION_TYPE><NORAD_CAT_ID>25286</NORAD_CAT_ID><ELEMENT_SET_NO>999</ELEMENT_SET_NO><REV_AT_EPOCH>44913</REV_AT_EPOCH><BSTAR>.18755472E-3</BSTAR><MEAN_MOTION_DOT>.572E-5</MEAN_MOTION_DOT><MEAN_MOTION_DDOT>0</MEAN_MOTION_DDOT></tleParameters></data></segment></body></omm>
<omm id="CCSDS_OMM_VERS" version="2.0">
<header><CREATION_DATE/><ORIGINATOR/></header><body><segment><metadata><OBJECT_NAME>IRIDIUM 69</OBJECT_NAME><OBJECT_ID>1998-026A</OBJECT_ID><CENTER_NAME>EARTH</CENTER_NAME><REF_FRAME>TEME</REF_FRAME><TIME_SYSTEM>UTC</TIME_SYSTEM><MEAN_ELEMENT_THEORY>SGP4</MEAN_ELEMENT_THEORY></metadata><data><meanElements><EPOCH>2025-12-10T03:30:15.823008</EPOCH><MEAN_MOTION>14.41213639</MEAN_MOTION><ECCENTRICITY>.00037665</ECCENTRICITY><INCLINATION>86.3980</INCLINATION><RA_OF_ASC_NODE>21.0353</RA_OF_ASC_NODE><ARG_OF_PERICENTER>129.7041</ARG_OF_PERICENTER><MEAN_ANOMALY>230.4491</MEAN_ANOMALY></meanElements><tleParameters><EPHEMERIS_TYPE>0</EPHEMERIS_TYPE><CLASSIFICATION_TYPE>U</CLASSIFICATION_TYPE><NORAD_CAT_ID>25319</NORAD_CAT_ID><ELEMENT_SET_NO>999</ELEMENT_SET_NO><REV_AT_EPOCH>44840</REV_AT_EPOCH><BSTAR>.23878962E-3</BSTAR><MEAN_MOTION_DOT>.79E-5</MEAN_MOTION_DOT><MEAN_MOTION_DDOT>0</MEAN_MOTION_DDOT></tleParameters></data></segment></body></omm>
<omm id="CCSDS_OMM_VERS" version="2.0">
<header><CREATION_DATE/><ORIGINATOR/></header><body><segment><metadata><OBJECT_NAME>IRIDIUM 71</OBJECT_NAME><OBJECT_ID>1998-026B</OBJECT_ID><CENTER_NAME>EARTH</CENTER_NAME><REF_FRAME>TEME</REF_FRAME><TIME_SYSTEM>UTC</TIME_SYSTEM><MEAN_ELEMENT_THEORY>SGP4</MEAN_ELEMENT_THEORY></metadata><data><meanElements><EPOCH>2025-12-10T03:11:28.701312</EPOCH><MEAN_MOTION>14.41315553</MEAN_MOTION><ECCENTRICITY>.00016607</ECCENTRICITY><INCLINATION>86.3980</INCLINATION><RA_OF_ASC_NODE>15.7138</RA_OF_ASC_NODE><ARG_OF_PERICENTER>156.9941</ARG_OF_PERICENTER><MEAN_ANOMALY>203.1334</MEAN_ANOMALY></meanElements><tleParameters><EPHEMERIS_TYPE>0</EPHEMERIS_TYPE><CLASSIFICATION_TYPE>U</CLASSIFICATION_TYPE><NORAD_CAT_ID>25320</NORAD_CAT_ID><ELEMENT_SET_NO>999</ELEMENT_SET_NO><REV_AT_EPOCH>44893</REV_AT_EPOCH><BSTAR>.12443019E-3</BSTAR><MEAN_MOTION_DOT>.422E-5</MEAN_MOTION_DOT><MEAN_MOTION_DDOT>0</MEAN_MOTION_DDOT></tleParameters></data></segment></body></omm>
<omm id="CCSDS_OMM_VERS" version="2.0">
<header><CREATION_DATE/><ORIGINATOR/></header><body><segment><metadata><OBJECT_NAME>IRIDIUM 73</OBJECT_NAME><OBJECT_ID>1998-032C</OBJECT_ID><CENTER_NAME>EARTH</CENTER_NAME><REF_FRAME>TEME</REF_FRAME><TIME_SYSTEM>UTC</TIME_SYSTEM><MEAN_ELEMENT_THEORY>SGP4</MEAN_ELEMENT_THEORY></metadata><data><meanElements><EPOCH>2025-12-09T11:18:06.986016</EPOCH><MEAN_MOTION>14.51983669</MEAN_MOTION><ECCENTRICITY>.00028804</ECCENTRICITY><INCLINATION>86.4403</INCLINATION><RA_OF_ASC_NODE>332.3786</RA_OF_ASC_NODE><ARG_OF_PERICENTER>96.3459</ARG_OF_PERICENTER><MEAN_ANOMALY>263.8074</MEAN_ANOMALY></meanElements><tleParameters><EPHEMERIS_TYPE>0</EPHEMERIS_TYPE><CLASSIFICATION_TYPE>U</CLASSIFICATION_TYPE><NORAD_CAT_ID>25344</NORAD_CAT_ID><ELEMENT_SET_NO>999</ELEMENT_SET_NO><REV_AT_EPOCH>45599</REV_AT_EPOCH><BSTAR>.30482318E-3</BSTAR><MEAN_MOTION_DOT>.1251E-4</MEAN_MOTION_DOT><MEAN_MOTION_DDOT>0</MEAN_MOTION_DDOT></tleParameters></data></segment></body></omm>
<omm id="CCSDS_OMM_VERS" version="2.0">
<header><CREATION_DATE/><ORIGINATOR/></header><body><segment><metadata><OBJECT_NAME>IRIDIUM 82</OBJECT_NAME><OBJECT_ID>1998-051A</OBJECT_ID><CENTER_NAME>EARTH</CENTER_NAME><REF_FRAME>TEME</REF_FRAME><TIME_SYSTEM>UTC</TIME_SYSTEM><MEAN_ELEMENT_THEORY>SGP4</MEAN_ELEMENT_THEORY></metadata><data><meanElements><EPOCH>2025-12-10T02:58:58.986912</EPOCH><MEAN_MOTION>15.46326647</MEAN_MOTION><ECCENTRICITY>.00613375</ECCENTRICITY><INCLINATION>86.3608</INCLINATION><RA_OF_ASC_NODE>22.4250</RA_OF_ASC_NODE><ARG_OF_PERICENTER>345.5991</ARG_OF_PERICENTER><MEAN_ANOMALY>14.3515</MEAN_ANOMALY></meanElements><tleParameters><EPHEMERIS_TYPE>0</EPHEMERIS_TYPE><CLASSIFICATION_TYPE>U</CLASSIFICATION_TYPE><NORAD_CAT_ID>25467</NORAD_CAT_ID><ELEMENT_SET_NO>999</ELEMENT_SET_NO><REV_AT_EPOCH>45099</REV_AT_EPOCH><BSTAR>.10119891E-2</BSTAR><MEAN_MOTION_DOT>.53962E-3</MEAN_MOTION_DOT><MEAN_MOTION_DDOT>0</MEAN_MOTION_DDOT></tleParameters></data></segment></body></omm>
</ndm>
